SL-8 R/B                
1 21088U 91006B   26069.19687878  .00000082  00000+0  66545-4 0  9991
2 21088  82.9466 169.6689 0023055  36.9476 341.8086 13.77494296764145
OKEAN-3                 
1 21397U 91039A   26069.14448524  .00004635  00000+0  32585-3 0  9992
2 21397  82.5191 336.4029 0013917 336.6290  23.4302 15.04809379865107
COSMOS 2151             
1 21422U 91042A   26069.15027215  .00001974  00000+0  15593-3 0  9999
2 21422  82.4931  83.2318 0013986  62.4755 297.7888 15.00106256863261
SL-14 R/B               
1 21423U 91042B   26068.89279344  .00000648  00000+0  78976-4 0  9994
2 21423  82.4923 219.9918 0015798 237.9189 122.0492 14.81829845853107
ERS-1                   
1 21574U 91050A   26069.04488751  .00000393  00000+0  14037-3 0  9996
2 21574  98.7882  87.2884 0031635 199.3829 160.6157 14.39449653815782
ARIANE 40 R/B           
1 21610U 91050F   26069.16434036  .00000364  00000+0  12144-3 0  9992
2 21610  98.2010 121.3829 0004299  80.2346 279.9330 14.42894015819060
INTERCOSMOS 25          
1 21819U 91086A   26069.15306100  .00001764  00000+0  33862-3 0  9996
2 21819  82.6045 309.7286 1486968 115.9335 260.2411 12.12000626496748
SL-8 R/B                
1 21876U 92008B   26069.09708389  .00000014  00000+0 -12336-5 0  9995
2 21876  82.9225 267.4753 0035593 132.1695 346.8371 13.75969834709474
SL-8 R/B                
1 21938U 92020B   26069.19467697  .00000068  00000+0  55397-4 0  9994
2 21938  82.9336 153.3867 0027689 297.3263  90.5358 13.75549513701206
USA 81                  
1 21949U 92023A   26069.14780972  .00000197  00000+0  65423-4 0  9992
2 21949  85.0084 131.1769 0002444  77.2317 282.9148 14.32368178 94854
COSMOS 2219             
1 22219U 92076A   26069.15764309  .00000112  00000+0  83307-4 0  9996
2 22219  71.0636  17.0890 0018985 206.4358 153.5798 14.14092677718448
SL-16 R/B               
1 22220U 92076B   26068.77661826 -.00000173  00000+0 -62219-4 0  9993
2 22220  71.0008 188.1904 0010464  96.2463  13.0541 14.16859632721843
COSMOS 2221             
1 22236U 92080A   26068.97175667  .00002227  00000+0  19500-3 0  9994
2 22236  82.5011 278.8108 0014070 186.0623 174.0431 14.96201420780831
SL-16 R/B               
1 22285U 92093B   26069.16351985 -.00000192  00000+0 -74201-4 0  9994
2 22285  71.0242   3.2710 0006397 293.2137  66.8312 14.15447778713221
COSMOS 2228             
1 22286U 92094A   26069.18843276  .00003003  00000+0  25689-3 0  9994
2 22286  82.5157 236.8326 0016785 302.9479  57.0128 14.97193026776130
SL-16 R/B               
1 22566U 93016B   26068.85060718  .00000109  00000+0  80304-4 0  9995
2 22566  71.0073 214.8427 0011827 314.0352  45.9796 14.15308750702199
COSMOS 2242             
1 22626U 93024A   26069.03709274  .00002466  00000+0  21417-3 0  9996
2 22626  82.5157 266.3841 0015165 307.6039  52.3805 14.96550816780445
