[{"OBJECT_NAME":"SL-8 R/B","OBJECT_ID":"1991-006B","EPOCH":"2026-03-10T04:43:30.326592","MEAN_MOTION":13.77494296,"ECCENTRICITY":0.0023055,"INCLINATION":82.9466,"RA_OF_ASC_NODE":169.6689,"ARG_OF_PERICENTER":36.9476,"MEAN_ANOMALY":341.8086,"EPHEMERIS_TYPE":0,"CLASSIFICATION_TYPE":"U","NORAD_CAT_ID":21088,"ELEMENT_SET_NO":999,"REV_AT_EPOCH":76414,"BSTAR":6.6545e-5,"MEAN_MOTION_DOT":8.2e-7,"MEAN_MOTION_DDOT":0},{"OBJECT_NAME":"OKEAN-3","OBJECT_ID":"1991-039A","EPOCH":"2026-03-10T03:28:03.524736","MEAN_MOTION":15.04809379,"ECCENTRICITY":0.0013917,"INCLINATION":82.5191,"RA_OF_ASC_NODE":336.4029,"ARG_OF_PERICENTER":336.629,"MEAN_ANOMALY":23.4302,"EPHEMERIS_TYPE":0,"CLASSIFICATION_TYPE":"U","NORAD_CAT_ID":21397,"ELEMENT_SET_NO":999,"REV_AT_EPOCH":86510,"BSTAR":0.00032585,"MEAN_MOTION_DOT":4.635e-5,"MEAN_MOTION_DDOT":0},{"OBJECT_NAME":"COSMOS 2151","OBJECT_ID":"1991-042A","EPOCH":"2026-03-10T03:36:23.513760","MEAN_MOTION":15.00106256,"ECCENTRICITY":0.0013986,"INCLINATION":82.4931,"RA_OF_ASC_NODE":83.2318,"ARG_OF_PERICENTER":62.4755,"MEAN_ANOMALY":297.7888,"EPHEMERIS_TYPE":0,"CLASSIFICATION_TYPE":"U","NORAD_CAT_ID":21422,"ELEMENT_SET_NO":999,"REV_AT_EPOCH":86326,"BSTAR":0.00015593,"MEAN_MOTION_DOT":1.974e-5,"MEAN_MOTION_DDOT":0},{"OBJECT_NAME":"SL-14 R/B","OBJECT_ID":"1991-042B","EPOCH":"2026-03-09T21:25:37.353216","MEAN_MOTION":14.81829845,"ECCENTRICITY":0.0015798,"INCLINATION":82.4923,"RA_OF_ASC_NODE":219.9918,"ARG_OF_PERICENTER":237.9189,"MEAN_ANOMALY":122.0492,"EPHEMERIS_TYPE":0,"CLASSIFICATION_TYPE":"U","NORAD_CAT_ID":21423,"ELEMENT_SET_NO":999,"REV_AT_EPOCH":85310,"BSTAR":7.8976e-5,"MEAN_MOTION_DOT":6.48e-6,"MEAN_MOTION_DDOT":0},{"OBJECT_NAME":"ERS-1","OBJECT_ID":"1991-050A","EPOCH":"2026-03-10T01:04:38.280864","MEAN_MOTION":14.39449653,"ECCENTRICITY":0.0031635,"INCLINATION":98.7882,"RA_OF_ASC_NODE":87.2884,"ARG_OF_PERICENTER":199.3829,"MEAN_ANOMALY":160.6157,"EPHEMERIS_TYPE":0,"CLASSIFICATION_TYPE":"U","NORAD_CAT_ID":21574,"ELEMENT_SET_NO":999,"REV_AT_EPOCH":81578,"BSTAR":0.00014037,"MEAN_MOTION_DOT":3.93e-6,"MEAN_MOTION_DDOT":0},{"OBJECT_NAME":"ARIANE 40 R/B","OBJECT_ID":"1991-050F","EPOCH":"2026-03-10T03:56:39.007104","MEAN_MOTION":14.42894015,"ECCENTRICITY":0.0004299,"INCLINATION":98.201,"RA_OF_ASC_NODE":121.3829,"ARG_OF_PERICENTER":80.2346,"MEAN_ANOMALY":279.933,"EPHEMERIS_TYPE":0,"CLASSIFICATION_TYPE":"U","NORAD_CAT_ID":21610,"ELEMENT_SET_NO":999,"REV_AT_EPOCH":81906,"BSTAR":0.00012144,"MEAN_MOTION_DOT":3.64e-6,"MEAN_MOTION_DDOT":0},{"OBJECT_NAME":"INTERCOSMOS 25","OBJECT_ID":"1991-086A","EPOCH":"2026-03-10T03:40:24.470400","MEAN_MOTION":12.12000626,"ECCENTRICITY":0.1486968,"INCLINATION":82.6045,"RA_OF_ASC_NODE":309.7286,"ARG_OF_PERICENTER":115.9335,"MEAN_ANOMALY":260.2411,"EPHEMERIS_TYPE":0,"CLASSIFICATION_TYPE":"U","NORAD_CAT_ID":21819,"ELEMENT_SET_NO":999,"REV_AT_EPOCH":49674,"BSTAR":0.00033862,"MEAN_MOTION_DOT":1.764e-5,"MEAN_MOTION_DDOT":0},{"OBJECT_NAME":"SL-8 R/B","OBJECT_ID":"1992-008B","EPOCH":"2026-03-10T02:19:48.048096","MEAN_MOTION":13.75969834,"ECCENTRICITY":0.0035593,"INCLINATION":82.9225,"RA_OF_ASC_NODE":267.4753,"ARG_OF_PERICENTER":132.1695,"MEAN_ANOMALY":346.8371,"EPHEMERIS_TYPE":0,"CLASSIFICATION_TYPE":"U","NORAD_CAT_ID":21876,"ELEMENT_SET_NO":999,"REV_AT_EPOCH":70947,"BSTAR":-1.2336e-6,"MEAN_MOTION_DOT":1.4e-7,"MEAN_MOTION_DDOT":0},{"OBJECT_NAME":"SL-8 R/B","OBJECT_ID":"1992-020B","EPOCH":"2026-03-10T04:40:20.090208","MEAN_MOTION":13.75549513,"ECCENTRICITY":0.0027689,"INCLINATION":82.9336,"RA_OF_ASC_NODE":153.3867,"ARG_OF_PERICENTER":297.3263,"MEAN_ANOMALY":90.5358,"EPHEMERIS_TYPE":0,"CLASSIFICATION_TYPE":"U","NORAD_CAT_ID":21938,"ELEMENT_SET_NO":999,"REV_AT_EPOCH":70120,"BSTAR":5.5397e-5,"MEAN_MOTION_DOT":6.8e-7,"MEAN_MOTION_DDOT":0},{"OBJECT_NAME":"USA 81","OBJECT_ID":"1992-023A","EPOCH":"2026-03-10T03:32:50.759808","MEAN_MOTION":14.32368178,"ECCENTRICITY":0.0002444,"INCLINATION":85.0084,"RA_OF_ASC_NODE":131.1769,"ARG_OF_PERICENTER":77.2317,"MEAN_ANOMALY":282.9148,"EPHEMERIS_TYPE":0,"CLASSIFICATION_TYPE":"U","NORAD_CAT_ID":21949,"ELEMENT_SET_NO":999,"REV_AT_EPOCH":9485,"BSTAR":6.5423e-5,"MEAN_MOTION_DOT":1.97e-6,"MEAN_MOTION_DDOT":0},{"OBJECT_NAME":"COSMOS 2219","OBJECT_ID":"1992-076A","EPOCH":"2026-03-10T03:47:00.362976","MEAN_MOTION":14.14092677,"ECCENTRICITY":0.0018985,"INCLINATION":71.0636,"RA_OF_ASC_NODE":17.089,"ARG_OF_PERICENTER":206.4358,"MEAN_ANOMALY":153.5798,"EPHEMERIS_TYPE":0,"CLASSIFICATION_TYPE":"U","NORAD_CAT_ID":22219,"ELEMENT_SET_NO":999,"REV_AT_EPOCH":71844,"BSTAR":8.3307e-5,"MEAN_MOTION_DOT":1.12e-6,"MEAN_MOTION_DDOT":0},{"OBJECT_NAME":"SL-16 R/B","OBJECT_ID":"1992-076B","EPOCH":"2026-03-09T18:38:19.817664","MEAN_MOTION":14.16859632,"ECCENTRICITY":0.00104648,"INCLINATION":71.0008,"RA_OF_ASC_NODE":188.1904,"ARG_OF_PERICENTER":96.2463,"MEAN_ANOMALY":13.0541,"EPHEMERIS_TYPE":0,"CLASSIFICATION_TYPE":"U","NORAD_CAT_ID":22220,"ELEMENT_SET_NO":999,"REV_AT_EPOCH":72184,"BSTAR":-6.2219185e-5,"MEAN_MOTION_DOT":-1.73e-6,"MEAN_MOTION_DDOT":0},{"OBJECT_NAME":"COSMOS 2221","OBJECT_ID":"1992-080A","EPOCH":"2026-03-09T23:19:19.776288","MEAN_MOTION":14.9620142,"ECCENTRICITY":0.001407,"INCLINATION":82.5011,"RA_OF_ASC_NODE":278.8108,"ARG_OF_PERICENTER":186.0623,"MEAN_ANOMALY":174.0431,"EPHEMERIS_TYPE":0,"CLASSIFICATION_TYPE":"U","NORAD_CAT_ID":22236,"ELEMENT_SET_NO":999,"REV_AT_EPOCH":78083,"BSTAR":0.000195,"MEAN_MOTION_DOT":2.227e-5,"MEAN_MOTION_DDOT":0},{"OBJECT_NAME":"SL-16 R/B","OBJECT_ID":"1992-093B","EPOCH":"2026-03-10T03:55:28.115040","MEAN_MOTION":14.15447778,"ECCENTRICITY":0.0006397,"INCLINATION":71.0242,"RA_OF_ASC_NODE":3.271,"ARG_OF_PERICENTER":293.2137,"MEAN_ANOMALY":66.8312,"EPHEMERIS_TYPE":0,"CLASSIFICATION_TYPE":"U","NORAD_CAT_ID":22285,"ELEMENT_SET_NO":999,"REV_AT_EPOCH":71322,"BSTAR":-7.4201e-5,"MEAN_MOTION_DOT":-1.92e-6,"MEAN_MOTION_DDOT":0},{"OBJECT_NAME":"COSMOS 2228","OBJECT_ID":"1992-094A","EPOCH":"2026-03-10T04:31:20.590464","MEAN_MOTION":14.97193026,"ECCENTRICITY":0.0016785,"INCLINATION":82.5157,"RA_OF_ASC_NODE":236.8326,"ARG_OF_PERICENTER":302.9479,"MEAN_ANOMALY":57.0128,"EPHEMERIS_TYPE":0,"CLASSIFICATION_TYPE":"U","NORAD_CAT_ID":22286,"ELEMENT_SET_NO":999,"REV_AT_EPOCH":77613,"BSTAR":0.00025689,"MEAN_MOTION_DOT":3.003e-5,"MEAN_MOTION_DDOT":0},{"OBJECT_NAME":"SL-16 R/B","OBJECT_ID":"1993-016B","EPOCH":"2026-03-09T20:24:52.460352","MEAN_MOTION":14.1530875,"ECCENTRICITY":0.0011827,"INCLINATION":71.0073,"RA_OF_ASC_NODE":214.8427,"ARG_OF_PERICENTER":314.0352,"MEAN_ANOMALY":45.9796,"EPHEMERIS_TYPE":0,"CLASSIFICATION_TYPE":"U","NORAD_CAT_ID":22566,"ELEMENT_SET_NO":999,"REV_AT_EPOCH":70219,"BSTAR":8.0304335e-5,"MEAN_MOTION_DOT":1.09e-6,"MEAN_MOTION_DDOT":0},{"OBJECT_NAME":"COSMOS 2242","OBJECT_ID":"1993-024A","EPOCH":"2026-03-10T00:53:24.812736","MEAN_MOTION":14.96550816,"ECCENTRICITY":0.0015165,"INCLINATION":82.5157,"RA_OF_ASC_NODE":266.3841,"ARG_OF_PERICENTER":307.6039,"MEAN_ANOMALY":52.3805,"EPHEMERIS_TYPE":0,"CLASSIFICATION_TYPE":"U","NORAD_CAT_ID":22626,"ELEMENT_SET_NO":999,"REV_AT_EPOCH":78044,"BSTAR":0.00021417,"MEAN_MOTION_DOT":2.466e-5,"MEAN_MOTION_DDOT":0}]
